{
  "type": "FeatureCollection",
  "features": [
    {
      "type": "Feature",
      "properties": {
        "norad_id": 31307,
        "name": "GALAXY 17 (G-17)",
        "group": "intelsat",
        "lat": 2.4476946322509727,
        "lon": 156.32785491291466,
        "alt_km": 35788.54897214202,
        "timestamp": "2025-12-25T09:48:51.953712+00:00",
        "meta_object_name": "GALAXY 17 (G-17)",
        "meta_object_id": "2007-016B",
        "meta_epoch": "2025-12-24T19:32:34.050336",
        "meta_mean_motion": 1.00276094,
        "meta_eccentricity": 0.00053776,
        "meta_inclination": 2.5284,
        "meta_ra_of_asc_node": 82.1476,
        "meta_arg_of_pericenter": 174.0589,
        "meta_mean_anomaly": 45.5313,
        "meta_ephemeris_type": 0,
        "meta_classification_type": "U",
        "meta_norad_cat_id": 31307,
        "meta_element_set_no": 999,
        "meta_rev_at_epoch": 6805,
        "meta_bstar": 0,
        "meta_mean_motion_dot": -1.87e-06,
        "meta_mean_motion_ddot": 0,
        "tle_line1": "1 31307U 07016B   25358.81428299 -.00000187  00000+0  00000+0 0  9999",
        "tle_line2": "2 31307   2.5284  82.1476 0005377 174.0589  45.5313  1.00276094 68050"
      },
      "geometry": {
        "type": "Point",
        "coordinates": [
          156.32785491291466,
          2.4476946322509727
        ]
      }
    },
    {
      "type": "Feature",
      "properties": {
        "norad_id": 31862,
        "name": "DIRECTV 10",
        "group": "intelsat",
        "lat": 9.495165243597454e-05,
        "lon": 138.59179835305756,
        "alt_km": 35785.73099336577,
        "timestamp": "2025-12-25T09:48:51.953724+00:00",
        "meta_object_name": "DIRECTV 10",
        "meta_object_id": "2007-032A",
        "meta_epoch": "2025-12-24T14:19:19.046208",
        "meta_mean_motion": 1.00273609,
        "meta_eccentricity": 2.725e-05,
        "meta_inclination": 0.0207,
        "meta_ra_of_asc_node": 182.1136,
        "meta_arg_of_pericenter": 53.7746,
        "meta_mean_anomaly": 329.5202,
        "meta_ephemeris_type": 0,
        "meta_classification_type": "U",
        "meta_norad_cat_id": 31862,
        "meta_element_set_no": 999,
        "meta_rev_at_epoch": 4384,
        "meta_bstar": 0,
        "meta_mean_motion_dot": -8.2e-07,
        "meta_mean_motion_ddot": 0,
        "tle_line1": "1 31862U 07032A   25358.59674822 -.00000082  00000+0  00000+0 0  9997",
        "tle_line2": "2 31862   0.0207 182.1136 0000272  53.7746 329.5202  1.00273609 43846"
      },
      "geometry": {
        "type": "Point",
        "coordinates": [
          138.59179835305756,
          9.495165243597454e-05
        ]
      }
    },
    {
      "type": "Feature",
      "properties": {
        "norad_id": 32253,
        "name": "INTELSAT 11 (IS-11)",
        "group": "intelsat",
        "lat": -1.5162131827323113,
        "lon": 51.46418555557205,
        "alt_km": 36165.74217724305,
        "timestamp": "2025-12-25T09:48:51.953735+00:00",
        "meta_object_name": "INTELSAT 11 (IS-11)",
        "meta_object_id": "2007-044B",
        "meta_epoch": "2025-12-24T20:46:04.510272",
        "meta_mean_motion": 0.99053047,
        "meta_eccentricity": 0.00086021,
        "meta_inclination": 3.1098,
        "meta_ra_of_asc_node": 80.8414,
        "meta_arg_of_pericenter": 171.0045,
        "meta_mean_anomaly": 325.7039,
        "meta_ephemeris_type": 0,
        "meta_classification_type": "U",
        "meta_norad_cat_id": 32253,
        "meta_element_set_no": 999,
        "meta_rev_at_epoch": 6672,
        "meta_bstar": 0,
        "meta_mean_motion_dot": -1.82e-06,
        "meta_mean_motion_ddot": 0,
        "tle_line1": "1 32253U 07044B   25358.86532998 -.00000182  00000+0  00000+0 0  9993",
        "tle_line2": "2 32253   3.1098  80.8414 0008602 171.0045 325.7039  0.99053047 66724"
      },
      "geometry": {
        "type": "Point",
        "coordinates": [
          51.46418555557205,
          -1.5162131827323113
        ]
      }
    },
    {
      "type": "Feature",
      "properties": {
        "norad_id": 32388,
        "name": "HORIZONS-2",
        "group": "intelsat",
        "lat": 2.153350873968632,
        "lon": 167.52592349432277,
        "alt_km": 35793.8947276746,
        "timestamp": "2025-12-25T09:48:51.953747+00:00",
        "meta_object_name": "HORIZONS-2",
        "meta_object_id": "2007-063B",
        "meta_epoch": "2025-12-24T19:35:48.738912",
        "meta_mean_motion": 1.00269737,
        "meta_eccentricity": 0.0004754,
        "meta_inclination": 2.1511,
        "meta_ra_of_asc_node": 82.8306,
        "meta_arg_of_pericenter": 196.4955,
        "meta_mean_anomaly": 34.4159,
        "meta_ephemeris_type": 0,
        "meta_classification_type": "U",
        "meta_norad_cat_id": 32388,
        "meta_element_set_no": 999,
        "meta_rev_at_epoch": 6606,
        "meta_bstar": 0,
        "meta_mean_motion_dot": -2.33e-06,
        "meta_mean_motion_ddot": 0,
        "tle_line1": "1 32388U 07063B   25358.81653633 -.00000233  00000+0  00000+0 0  9995",
        "tle_line2": "2 32388   2.1511  82.8306 0004754 196.4955  34.4159  1.00269737 66061"
      },
      "geometry": {
        "type": "Point",
        "coordinates": [
          167.52592349432277,
          2.153350873968632
        ]
      }
    },
    {
      "type": "Feature",
      "properties": {
        "norad_id": 32729,
        "name": "DIRECTV 11",
        "group": "intelsat",
        "lat": -0.013765791370348751,
        "lon": 142.12623265879503,
        "alt_km": 35785.9251338545,
        "timestamp": "2025-12-25T09:48:51.953759+00:00",
        "meta_object_name": "DIRECTV 11",
        "meta_object_id": "2008-013A",
        "meta_epoch": "2025-12-24T09:12:12.534624",
        "meta_mean_motion": 1.00256345,
        "meta_eccentricity": 0.00011263,
        "meta_inclination": 0.0044,
        "meta_ra_of_asc_node": 219.4994,
        "meta_arg_of_pericenter": 300.4767,
        "meta_mean_anomaly": 332.0426,
        "meta_ephemeris_type": 0,
        "meta_classification_type": "U",
        "meta_norad_cat_id": 32729,
        "meta_element_set_no": 999,
        "meta_rev_at_epoch": 4384,
        "meta_bstar": 0,
        "meta_mean_motion_dot": 0,
        "meta_mean_motion_ddot": 0,
        "tle_line1": "1 32729U 08013A   25358.38347841  .00000000  00000+0  00000+0 0  9994",
        "tle_line2": "2 32729   0.0044 219.4994 0001126 300.4767 332.0426  1.00256345 43843"
      },
      "geometry": {
        "type": "Point",
        "coordinates": [
          142.12623265879503,
          -0.013765791370348751
        ]
      }
    },
    {
      "type": "Feature",
      "properties": {
        "norad_id": 32951,
        "name": "GALAXY 18 (G-18)",
        "group": "intelsat",
        "lat": 0.021199199564325782,
        "lon": 118.36180468242777,
        "alt_km": 35798.13580799279,
        "timestamp": "2025-12-25T09:48:51.953771+00:00",
        "meta_object_name": "GALAXY 18 (G-18)",
        "meta_object_id": "2008-024A",
        "meta_epoch": "2025-12-25T02:12:40.725792",
        "meta_mean_motion": 1.00272072,
        "meta_eccentricity": 0.0003031,
        "meta_inclination": 0.017,
        "meta_ra_of_asc_node": 323.4442,
        "meta_arg_of_pericenter": 316.2082,
        "meta_mean_anomaly": 84.3679,
        "meta_ephemeris_type": 0,
        "meta_classification_type": "U",
        "meta_norad_cat_id": 32951,
        "meta_element_set_no": 999,
        "meta_rev_at_epoch": 4410,
        "meta_bstar": 0,
        "meta_mean_motion_dot": 4.6e-07,
        "meta_mean_motion_ddot": 0,
        "tle_line1": "1 32951U 08024A   25359.09213803  .00000046  00000+0  00000+0 0  9992",
        "tle_line2": "2 32951   0.0170 323.4442 0003031 316.2082  84.3679  1.00272072 44108"
      },
      "geometry": {
        "type": "Point",
        "coordinates": [
          118.36180468242777,
          0.021199199564325782
        ]
      }
    },
    {
      "type": "Feature",
      "properties": {
        "norad_id": 33153,
        "name": "INTELSAT 25 (IS-25)",
        "group": "intelsat",
        "lat": 1.791255668310715,
        "lon": -150.14093458289958,
        "alt_km": 35776.05048157126,
        "timestamp": "2025-12-25T09:48:51.953783+00:00",
        "meta_object_name": "INTELSAT 25 (IS-25)",
        "meta_object_id": "2008-034A",
        "meta_epoch": "2025-12-24T23:13:20.404128",
        "meta_mean_motion": 1.00272025,
        "meta_eccentricity": 0.0004905,
        "meta_inclination": 2.2573,
        "meta_ra_of_asc_node": 82.5174,
        "meta_arg_of_pericenter": 189.2444,
        "meta_mean_anomaly": 138.8126,
        "meta_ephemeris_type": 0,
        "meta_classification_type": "U",
        "meta_norad_cat_id": 33153,
        "meta_element_set_no": 999,
        "meta_rev_at_epoch": 6394,
        "meta_bstar": 0,
        "meta_mean_motion_dot": -2.03e-06,
        "meta_mean_motion_ddot": 0,
        "tle_line1": "1 33153U 08034A   25358.96759727 -.00000203  00000+0  00000+0 0  9999",
        "tle_line2": "2 33153   2.2573  82.5174 0004905 189.2444 138.8126  1.00272025 63943"
      },
      "geometry": {
        "type": "Point",
        "coordinates": [
          -150.14093458289958,
          1.791255668310715
        ]
      }
    }
  ]
}